EYESAT A (AO-27)        
1 22825U 93061C   26133.17764638  .00000044  00000+0  33770-4 0  9996
2 22825  98.6891 200.6008 0008065 195.5210 164.5726 14.30932290701990
ITAMSAT (IO-26)         
1 22826U 93061D   26133.16748329  .00000044  00000+0  33402-4 0  9997
2 22826  98.6839 200.5046 0008917 179.1732 180.9467 14.31358230702304
RADIO ROSTO (RS15)      
1 23439U 94085A   26133.17248329 -.00000049  00000+0 -17831-3 0  9995
2 23439  64.8193 359.8465 0154968  10.2869 350.1167 11.27583697291951
JAS-2 (FO-29)           
1 24278U 96046B   26133.04353655 -.00000021  00000+0  13787-4 0  9997
2 24278  98.5278 346.7226 0349719 187.4780 172.1064 13.53272328468412
FORTE                   
1 24920U 97047A   26133.07002063  .00000088  00000+0  58868-4 0  9991
2 24920  69.9522  93.3394 0023661 320.3136  39.6253 14.27929886493672
TECHSAT 1B (GO-32)      
1 25397U 98043D   26132.94280304  .00000028  00000+0  32084-4 0  9994
2 25397  99.0064 124.8147 0001006  13.0735 347.0469 14.24421275446312
ISS (ZARYA)             
1 25544U 98067A   26133.16648102  .00004986  00000+0  97915-4 0  9994
2 25544  51.6312 113.4597 0007514  53.2822 306.8856 15.49201863566326
IMAGE                   
1 26113U 00017A   26131.51486742  .00000008  00000+0 -20584-1 0  9999
2 26113  94.2002 314.8870 7459903 291.9767   8.1989  1.68665748160880
CLUSTER II-FM7 (SAMBA)  
1 26410U 00041A   26134.67012284  .00003081  00000+0  00000+0 0  9994
2 26410 149.8131  45.0140 9016039 261.7471   0.4872  0.44842106 20150
CLUSTER II-FM8 (TANGO)  
1 26464U 00045B   26134.64524914  .00003165  00000+0  00000+0 0  9995
2 26464 150.0702  46.0108 9019980 262.6015   0.5030  0.44404709 20143
ODIN                    
1 26702U 01007A   26133.11160707  .00068097  00000+0  66050-3 0  9992
2 26702  97.3930 172.0700 0002176 197.0063 163.1124 15.66144874383894
OMNI-M1                 
1 26857U 01026A   26132.55669822 -.00000019  00000+0  00000+0 0  9993
2 26857  44.8439 253.4765 0015447  47.3287 312.8214  3.92401465204175
PCSAT (NO-44)           
1 26931U 01043C   26133.02690855  .00000066  00000+0  55531-4 0  9993
2 26931  67.0512 335.2127 0006280 263.7293  96.3094 14.31942007285417
PROBA-1                 
1 26958U 01049B   26133.28706219  .00001497  00000+0  10051-3 0  9994
2 26958  97.9617 140.6036 0053754 240.3010 119.2860 15.07363423338369
SAUDISAT 1C (SO-50)     
1 27607U 02058C   26133.22440557  .00000595  00000+0  88040-4 0  9993
2 27607  64.5522 237.1515 0075630 268.8586  90.3855 14.82970672259277
CORIOLIS                
1 27640U 03001A   26133.24642520  .00000068  00000+0  52742-4 0  9990
2 27640  98.7136 140.6640 0013148 317.3739  42.6416 14.19934889209264
CUTE-1 (CO-55)          
1 27844U 03031E   26132.98314120  .00000190  00000+0  10121-3 0  9991
2 27844  98.6747 141.9842 0008342 290.4636  69.5647 14.24313180186665
CUBESAT XI-IV (CO-57)   
1 27848U 03031J   26132.95398353  .00000166  00000+0  92089-4 0  9999
2 27848  98.6779 141.6963 0008465 311.5693  48.4759 14.23601310186360
MOZHAETS 4 (RS22)       
1 27939U 03042A   26133.31870664  .00000517  00000+0  88010-4 0  9992
2 27939  98.3474 316.6947 0011868  25.4711  99.1486 14.73403759210415
